STARLINK-2611
1 18364C 21038M   21326.14305608  .00009174  00000-0  61463-3 0  3268
2 18364  53.0529 198.0903 0002131  71.2008 142.3878 15.06391238    18
